ONEWEB-0233             
1 48795U 21045AE  24324.10240093 -.00000192  00000+0 -54293-3 0  9998
2 48795  87.9097  13.7279 0001721  87.8571 272.2756 13.15548996169795
ONEWEB-0190             
1 48796U 21045AF  24323.70865491 -.00000106  00000+0 -31574-3 0  9991
2 48796  87.9102  13.7672 0002125  71.6091 288.5270 13.15545964168700
ONEWEB-0236             
1 48797U 21045AG  24323.87819395 -.00000381  00000+0 -10454-2 0  9990
2 48797  87.9102  13.7333 0001713  93.8535 266.2791 13.15547634168613
ONEWEB-0248             
1 48798U 21045AH  24324.04298162  .00000185  00000+0  45776-3 0  9990
2 48798  87.9093  13.6778 0001497  73.0104 287.1191 13.15551464169912
ONEWEB-0225             
1 48799U 21045AJ  24323.91305853  .00000167  00000+0  41079-3 0  9994
2 48799  87.9101  13.7231 0001863  84.2802 275.8540 13.15546009169926
ONEWEB-0215             
1 48800U 21045AK  24324.11111662 -.00000304  00000+0 -84234-3 0  9998
2 48800  87.9093  13.6488 0001686  70.9029 289.2284 13.15547864169809
ONEWEB-0216             
1 48801U 21045AL  24323.89245343 -.00000060  00000+0 -19224-3 0  9993
2 48801  87.9094  13.7351 0002089  96.3664 263.7704 13.15549980169788
ONEWEB-0239             
1 48802U 21045AM  24324.12537509  .00000151  00000+0  36598-3 0  9991
2 48802  87.9102  13.6784 0001512  66.8812 293.2478 13.15551743169871
